STARLINK-2096           
1 47376U 21005AD  25317.15047427  .00017496  00000+0  11913-2 0  9996
2 47376  53.0527 224.7893 0001325  67.8582 292.2548 15.06378452265470
STARLINK-2097           
1 47377U 21005AE  25317.13574177  .00006656  00000+0  46602-3 0  9992
2 47377  53.0542 224.8513 0002410  60.9873 299.1358 15.06346135265479
STARLINK-2098           
1 47378U 21005AF  25317.06201699  .00005604  00000+0  39466-3 0  9993
2 47378  53.0521 185.1812 0001592  83.1192 276.9978 15.06411935266023
STARLINK-2099           
1 47379U 21005AG  25317.00209993  .00001302  00000+0  10630-3 0  9996
2 47379  53.0537 185.4407 0001793  81.6057 278.5135 15.06407505266010
STARLINK-2100           
1 47380U 21005AH  25317.03161893  .00022327  00000+0  15123-2 0  9998
2 47380  53.0518 195.3134 0001447  93.3723 266.7432 15.06418608265883
STARLINK-2101           
1 47381U 21005AJ  25317.04774161 -.00013328  00000+0 -87803-3 0  9996
2 47381  53.0497 200.3332 0001961  88.6310 271.4903 15.06377236265817
STARLINK-2102           
1 47382U 21005AK  25317.09057052  .00000529  00000+0  54394-4 0  9992
2 47382  53.0552 195.0516 0002049  86.2509 273.8715 15.06414955265880
STARLINK-2103           
1 47383U 21005AL  25317.00307357  .00005132  00000+0  36304-3 0  9995
2 47383  53.0522 185.7257 0001459  89.8338 270.2818 15.06416835266019
STARLINK-2104           
1 47384U 21005AM  25317.07585462  .00000488  00000+0  51634-4 0  9991
2 47384  53.0536 195.3571 0001843  99.3037 260.8160 15.06418309265887
STARLINK-2105           
1 47385U 21005AN  25317.07213596  .00011494  00000+0  78875-3 0  9992
2 47385  53.0535 195.1354 0001118 103.8345 256.2769 15.06425397265881
STARLINK-2106           
1 47386U 21005AP  25317.03528931  .00002969  00000+0  21811-3 0  9996
2 47386  53.0532 195.3016 0001492  85.9613 274.1547 15.06405917265888
STARLINK-2109           
1 47388U 21005AR  25317.16889817 -.00009833  00000+0 -64238-3 0  9994
2 47388  53.0527 224.7008 0001588  93.4228 266.6942 15.06385527265478
STARLINK-2110           
1 47389U 21005AS  25317.08133188  .00009351  00000+0  64537-3 0  9994
2 47389  53.0529 205.0821 0001347  76.2341 283.8798 15.06426596265746
STARLINK-2111           
1 47390U 21005AT  25317.14308976 -.00025109  00000+0 -16752-2 0  9998
2 47390  53.0527 224.8161 0001811  75.0710 285.0480 15.06343012265478
STARLINK-2112           
1 47391U 21005AU  25317.21861690  .00005935  00000+0  41677-3 0  9992
2 47391  53.0523 194.4792 0000960 100.3805 259.7293 15.06417083265906
STARLINK-2113           
1 47392U 21005AV  25317.08687993  .00011271  00000+0  77409-3 0  9992
2 47392  53.0556 195.0735 0001546  58.8873 301.2268 15.06412903265888
