[{"OBJECT_NAME":"STARLINK-2096","OBJECT_ID":"2021-005AD","EPOCH":"2025-11-13T03:36:40.976928","MEAN_MOTION":15.06378452,"ECCENTRICITY":0.00013254,"INCLINATION":53.0527,"RA_OF_ASC_NODE":224.7893,"ARG_OF_PERICENTER":67.8582,"MEAN_ANOMALY":292.2548,"EPHEMERIS_TYPE":0,"CLASSIFICATION_TYPE":"U","NORAD_CAT_ID":47376,"ELEMENT_SET_NO":999,"REV_AT_EPOCH":26547,"BSTAR":0.0011912613,"MEAN_MOTION_DOT":0.00017496,"MEAN_MOTION_DDOT":0},{"OBJECT_NAME":"STARLINK-2097","OBJECT_ID":"2021-005AE","EPOCH":"2025-11-13T03:15:28.088928","MEAN_MOTION":15.06346135,"ECCENTRICITY":0.00024107,"INCLINATION":53.0542,"RA_OF_ASC_NODE":224.8513,"ARG_OF_PERICENTER":60.9873,"MEAN_ANOMALY":299.1358,"EPHEMERIS_TYPE":0,"CLASSIFICATION_TYPE":"U","NORAD_CAT_ID":47377,"ELEMENT_SET_NO":999,"REV_AT_EPOCH":26547,"BSTAR":0.00046601696,"MEAN_MOTION_DOT":6.656e-5,"MEAN_MOTION_DDOT":0},{"OBJECT_NAME":"STARLINK-2098","OBJECT_ID":"2021-005AF","EPOCH":"2025-11-13T01:29:18.267936","MEAN_MOTION":15.06411935,"ECCENTRICITY":0.00015922,"INCLINATION":53.0521,"RA_OF_ASC_NODE":185.1812,"ARG_OF_PERICENTER":83.1192,"MEAN_ANOMALY":276.9978,"EPHEMERIS_TYPE":0,"CLASSIFICATION_TYPE":"U","NORAD_CAT_ID":47378,"ELEMENT_SET_NO":999,"REV_AT_EPOCH":26602,"BSTAR":0.00039465913,"MEAN_MOTION_DOT":5.604e-5,"MEAN_MOTION_DDOT":0},{"OBJECT_NAME":"STARLINK-2099","OBJECT_ID":"2021-005AG","EPOCH":"2025-11-13T00:03:01.433952","MEAN_MOTION":15.06407505,"ECCENTRICITY":0.00017938,"INCLINATION":53.0537,"RA_OF_ASC_NODE":185.4407,"ARG_OF_PERICENTER":81.6057,"MEAN_ANOMALY":278.5135,"EPHEMERIS_TYPE":0,"CLASSIFICATION_TYPE":"U","NORAD_CAT_ID":47379,"ELEMENT_SET_NO":999,"REV_AT_EPOCH":26601,"BSTAR":0.00010630284,"MEAN_MOTION_DOT":1.302e-5,"MEAN_MOTION_DDOT":0},{"OBJECT_NAME":"STARLINK-2100","OBJECT_ID":"2021-005AH","EPOCH":"2025-11-13T00:45:31.875552","MEAN_MOTION":15.06418608,"ECCENTRICITY":0.00014476,"INCLINATION":53.0518,"RA_OF_ASC_NODE":195.3134,"ARG_OF_PERICENTER":93.3723,"MEAN_ANOMALY":266.7432,"EPHEMERIS_TYPE":0,"CLASSIFICATION_TYPE":"U","NORAD_CAT_ID":47380,"ELEMENT_SET_NO":999,"REV_AT_EPOCH":26588,"BSTAR":0.0015122948,"MEAN_MOTION_DOT":0.00022327,"MEAN_MOTION_DDOT":0},{"OBJECT_NAME":"STARLINK-2101","OBJECT_ID":"2021-005AJ","EPOCH":"2025-11-13T01:08:44.875104","MEAN_MOTION":15.06377236,"ECCENTRICITY":0.00019616,"INCLINATION":53.0497,"RA_OF_ASC_NODE":200.3332,"ARG_OF_PERICENTER":88.631,"MEAN_ANOMALY":271.4903,"EPHEMERIS_TYPE":0,"CLASSIFICATION_TYPE":"U","NORAD_CAT_ID":47381,"ELEMENT_SET_NO":999,"REV_AT_EPOCH":26581,"BSTAR":-0.00087803148,"MEAN_MOTION_DOT":-0.00013328,"MEAN_MOTION_DDOT":0},{"OBJECT_NAME":"STARLINK-2102","OBJECT_ID":"2021-005AK","EPOCH":"2025-11-13T02:10:25.292928","MEAN_MOTION":15.06414955,"ECCENTRICITY":0.00020497,"INCLINATION":53.0552,"RA_OF_ASC_NODE":195.0516,"ARG_OF_PERICENTER":86.2509,"MEAN_ANOMALY":273.8715,"EPHEMERIS_TYPE":0,"CLASSIFICATION_TYPE":"U","NORAD_CAT_ID":47382,"ELEMENT_SET_NO":999,"REV_AT_EPOCH":26588,"BSTAR":5.4393784e-5,"MEAN_MOTION_DOT":5.29e-6,"MEAN_MOTION_DDOT":0},{"OBJECT_NAME":"STARLINK-2103","OBJECT_ID":"2021-005AL","EPOCH":"2025-11-13T00:04:25.556448","MEAN_MOTION":15.06416835,"ECCENTRICITY":0.0001459,"INCLINATION":53.0522,"RA_OF_ASC_NODE":185.7257,"ARG_OF_PERICENTER":89.8338,"MEAN_ANOMALY":270.2818,"EPHEMERIS_TYPE":0,"CLASSIFICATION_TYPE":"U","NORAD_CAT_ID":47383,"ELEMENT_SET_NO":999,"REV_AT_EPOCH":26601,"BSTAR":0.00036303871,"MEAN_MOTION_DOT":5.132e-5,"MEAN_MOTION_DDOT":0},{"OBJECT_NAME":"STARLINK-2104","OBJECT_ID":"2021-005AM","EPOCH":"2025-11-13T01:49:13.839168","MEAN_MOTION":15.06418309,"ECCENTRICITY":0.00018436,"INCLINATION":53.0536,"RA_OF_ASC_NODE":195.3571,"ARG_OF_PERICENTER":99.3037,"MEAN_ANOMALY":260.816,"EPHEMERIS_TYPE":0,"CLASSIFICATION_TYPE":"U","NORAD_CAT_ID":47384,"ELEMENT_SET_NO":999,"REV_AT_EPOCH":26588,"BSTAR":5.1633574e-5,"MEAN_MOTION_DOT":4.88e-6,"MEAN_MOTION_DDOT":0},{"OBJECT_NAME":"STARLINK-2105","OBJECT_ID":"2021-005AN","EPOCH":"2025-11-13T01:43:52.546944","MEAN_MOTION":15.06425397,"ECCENTRICITY":0.00011186,"INCLINATION":53.0535,"RA_OF_ASC_NODE":195.1354,"ARG_OF_PERICENTER":103.8345,"MEAN_ANOMALY":256.2769,"EPHEMERIS_TYPE":0,"CLASSIFICATION_TYPE":"U","NORAD_CAT_ID":47385,"ELEMENT_SET_NO":999,"REV_AT_EPOCH":26588,"BSTAR":0.00078875082,"MEAN_MOTION_DOT":0.00011494,"MEAN_MOTION_DDOT":0},{"OBJECT_NAME":"STARLINK-2106","OBJECT_ID":"2021-005AP","EPOCH":"2025-11-13T00:50:48.996384","MEAN_MOTION":15.06405917,"ECCENTRICITY":0.00014926,"INCLINATION":53.0532,"RA_OF_ASC_NODE":195.3016,"ARG_OF_PERICENTER":85.9613,"MEAN_ANOMALY":274.1547,"EPHEMERIS_TYPE":0,"CLASSIFICATION_TYPE":"U","NORAD_CAT_ID":47386,"ELEMENT_SET_NO":999,"REV_AT_EPOCH":26588,"BSTAR":0.00021811237,"MEAN_MOTION_DOT":2.969e-5,"MEAN_MOTION_DDOT":0},{"OBJECT_NAME":"STARLINK-2109","OBJECT_ID":"2021-005AR","EPOCH":"2025-11-13T04:03:12.801888","MEAN_MOTION":15.06385527,"ECCENTRICITY":0.00015884,"INCLINATION":53.0527,"RA_OF_ASC_NODE":224.7008,"ARG_OF_PERICENTER":93.4228,"MEAN_ANOMALY":266.6942,"EPHEMERIS_TYPE":0,"CLASSIFICATION_TYPE":"U","NORAD_CAT_ID":47388,"ELEMENT_SET_NO":999,"REV_AT_EPOCH":26547,"BSTAR":-0.00064237862,"MEAN_MOTION_DOT":-9.833e-5,"MEAN_MOTION_DDOT":0},{"OBJECT_NAME":"STARLINK-2110","OBJECT_ID":"2021-005AS","EPOCH":"2025-11-13T01:57:07.074432","MEAN_MOTION":15.06426596,"ECCENTRICITY":0.00013475,"INCLINATION":53.0529,"RA_OF_ASC_NODE":205.0821,"ARG_OF_PERICENTER":76.2341,"MEAN_ANOMALY":283.8798,"EPHEMERIS_TYPE":0,"CLASSIFICATION_TYPE":"U","NORAD_CAT_ID":47389,"ELEMENT_SET_NO":999,"REV_AT_EPOCH":26574,"BSTAR":0.00064536557,"MEAN_MOTION_DOT":9.351e-5,"MEAN_MOTION_DDOT":0},{"OBJECT_NAME":"STARLINK-2111","OBJECT_ID":"2021-005AT","EPOCH":"2025-11-13T03:26:02.955264","MEAN_MOTION":15.06343012,"ECCENTRICITY":0.00018112,"INCLINATION":53.0527,"RA_OF_ASC_NODE":224.8161,"ARG_OF_PERICENTER":75.071,"MEAN_ANOMALY":285.048,"EPHEMERIS_TYPE":0,"CLASSIFICATION_TYPE":"U","NORAD_CAT_ID":47390,"ELEMENT_SET_NO":999,"REV_AT_EPOCH":26547,"BSTAR":-0.0016752423,"MEAN_MOTION_DOT":-0.00025109,"MEAN_MOTION_DDOT":0},{"OBJECT_NAME":"STARLINK-2112","OBJECT_ID":"2021-005AU","EPOCH":"2025-11-13T05:14:48.500160","MEAN_MOTION":15.06417083,"ECCENTRICITY":9.6e-5,"INCLINATION":53.0523,"RA_OF_ASC_NODE":194.4792,"ARG_OF_PERICENTER":100.3805,"MEAN_ANOMALY":259.7293,"EPHEMERIS_TYPE":0,"CLASSIFICATION_TYPE":"U","NORAD_CAT_ID":47391,"ELEMENT_SET_NO":999,"REV_AT_EPOCH":26590,"BSTAR":0.00041676615,"MEAN_MOTION_DOT":5.935e-5,"MEAN_MOTION_DDOT":0},{"OBJECT_NAME":"STARLINK-2113","OBJECT_ID":"2021-005AV","EPOCH":"2025-11-13T02:05:06.425952","MEAN_MOTION":15.06412903,"ECCENTRICITY":0.00015466,"INCLINATION":53.0556,"RA_OF_ASC_NODE":195.0735,"ARG_OF_PERICENTER":58.8873,"MEAN_ANOMALY":301.2268,"EPHEMERIS_TYPE":0,"CLASSIFICATION_TYPE":"U","NORAD_CAT_ID":47392,"ELEMENT_SET_NO":999,"REV_AT_EPOCH":26588,"BSTAR":0.00077408919,"MEAN_MOTION_DOT":0.00011271,"MEAN_MOTION_DDOT":0}]
